CCSDS_OMM_VERS = 2.0
CREATION_DATE  = 
ORIGINATOR     = 

OBJECT_NAME    = SL-3 R/B
OBJECT_ID      = 1982-039B
CENTER_NAME    = EARTH
REF_FRAME      = TEME
TIME_SYSTEM    = UTC
MEAN_ELEMENT_THEORY = SGP/SGP4

EPOCH          = 2025-11-04T20:27:06.915168
MEAN_MOTION    = 15.09213356
ECCENTRICITY   = .0032662
INCLINATION    = 81.1823
RA_OF_ASC_NODE = 359.6562
ARG_OF_PERICENTER = 15.5576
MEAN_ANOMALY   = 344.6644

EPHEMERIS_TYPE = 0
CLASSIFICATION_TYPE = U
NORAD_CAT_ID   = 13154
ELEMENT_SET_NO = 999
REV_AT_EPOCH   = 36280
BSTAR          = .14867E-3
MEAN_MOTION_DOT = .2416E-4
MEAN_MOTION_DDOT = 0

CCSDS_OMM_VERS = 2.0
CREATION_DATE  = 
ORIGINATOR     = 

OBJECT_NAME    = SL-3 R/B
OBJECT_ID      = 1982-079B
CENTER_NAME    = EARTH
REF_FRAME      = TEME
TIME_SYSTEM    = UTC
MEAN_ELEMENT_THEORY = SGP/SGP4

EPOCH          = 2025-11-04T20:16:08.637888
MEAN_MOTION    = 15.22991587
ECCENTRICITY   = .0024779
INCLINATION    = 81.1473
RA_OF_ASC_NODE = 340.3165
ARG_OF_PERICENTER = 225.4547
MEAN_ANOMALY   = 134.4662

EPHEMERIS_TYPE = 0
CLASSIFICATION_TYPE = U
NORAD_CAT_ID   = 13403
ELEMENT_SET_NO = 999
REV_AT_EPOCH   = 35868
BSTAR          = .2389E-3
MEAN_MOTION_DOT = .5688E-4
MEAN_MOTION_DDOT = 0

CCSDS_OMM_VERS = 2.0
CREATION_DATE  = 
ORIGINATOR     = 

OBJECT_NAME    = SL-14 R/B
OBJECT_ID      = 1982-092B
CENTER_NAME    = EARTH
REF_FRAME      = TEME
TIME_SYSTEM    = UTC
MEAN_ELEMENT_THEORY = SGP/SGP4

EPOCH          = 2025-11-04T20:16:44.472288
MEAN_MOTION    = 14.86486840
ECCENTRICITY   = .0020442
INCLINATION    = 82.5668
RA_OF_ASC_NODE = 258.1496
ARG_OF_PERICENTER = 0.2930
MEAN_ANOMALY   = 29.6678

EPHEMERIS_TYPE = 0
CLASSIFICATION_TYPE = U
NORAD_CAT_ID   = 13553
ELEMENT_SET_NO = 999
REV_AT_EPOCH   = 31038
BSTAR          = .77731E-4
MEAN_MOTION_DOT = .714E-5
MEAN_MOTION_DDOT = 0

CCSDS_OMM_VERS = 2.0
CREATION_DATE  = 
ORIGINATOR     = 

OBJECT_NAME    = SL-3 R/B
OBJECT_ID      = 1983-010B
CENTER_NAME    = EARTH
REF_FRAME      = TEME
TIME_SYSTEM    = UTC
MEAN_ELEMENT_THEORY = SGP/SGP4

EPOCH          = 2025-11-04T19:54:13.644576
MEAN_MOTION    = 15.42079591
ECCENTRICITY   = .0018316
INCLINATION    = 81.1029
RA_OF_ASC_NODE = 154.8452
ARG_OF_PERICENTER = 119.2493
MEAN_ANOMALY   = 241.0583

EPHEMERIS_TYPE = 0
CLASSIFICATION_TYPE = U
NORAD_CAT_ID   = 13819
ELEMENT_SET_NO = 999
REV_AT_EPOCH   = 33867
BSTAR          = .27967E-3
MEAN_MOTION_DOT = .12056E-3
MEAN_MOTION_DDOT = 0

CCSDS_OMM_VERS = 2.0
CREATION_DATE  = 
ORIGINATOR     = 

OBJECT_NAME    = SL-3 R/B
OBJECT_ID      = 1983-075B
CENTER_NAME    = EARTH
REF_FRAME      = TEME
TIME_SYSTEM    = UTC
MEAN_ELEMENT_THEORY = SGP/SGP4

EPOCH          = 2025-11-04T19:07:34.284576
MEAN_MOTION    = 15.35013564
ECCENTRICITY   = .0021948
INCLINATION    = 97.6095
RA_OF_ASC_NODE = 304.0388
ARG_OF_PERICENTER = 320.2434
MEAN_ANOMALY   = 39.7199

EPHEMERIS_TYPE = 0
CLASSIFICATION_TYPE = U
NORAD_CAT_ID   = 14208
ELEMENT_SET_NO = 999
REV_AT_EPOCH   = 31097
BSTAR          = .33825E-3
MEAN_MOTION_DOT = .11498E-3
MEAN_MOTION_DDOT = 0

CCSDS_OMM_VERS = 2.0
CREATION_DATE  = 
ORIGINATOR     = 

OBJECT_NAME    = COSMOS 1536
OBJECT_ID      = 1984-013A
CENTER_NAME    = EARTH
REF_FRAME      = TEME
TIME_SYSTEM    = UTC
MEAN_ELEMENT_THEORY = SGP/SGP4

EPOCH          = 2025-11-04T06:50:06.256032
MEAN_MOTION    = 15.21809418
ECCENTRICITY   = .0015813
INCLINATION    = 82.5471
RA_OF_ASC_NODE = 232.2753
ARG_OF_PERICENTER = 11.9514
MEAN_ANOMALY   = 348.2094

EPHEMERIS_TYPE = 0
CLASSIFICATION_TYPE = U
NORAD_CAT_ID   = 14699
ELEMENT_SET_NO = 999
REV_AT_EPOCH   = 25353
BSTAR          = .39543E-3
MEAN_MOTION_DOT = .904E-4
MEAN_MOTION_DDOT = 0

CCSDS_OMM_VERS = 2.0
CREATION_DATE  = 
ORIGINATOR     = 

OBJECT_NAME    = SL-14 R/B
OBJECT_ID      = 1984-027B
CENTER_NAME    = EARTH
REF_FRAME      = TEME
TIME_SYSTEM    = UTC
MEAN_ELEMENT_THEORY = SGP/SGP4

EPOCH          = 2025-11-04T13:46:21.421056
MEAN_MOTION    = 14.85814957
ECCENTRICITY   = .001878
INCLINATION    = 82.5438
RA_OF_ASC_NODE = 2.3463
ARG_OF_PERICENTER = 32.2856
MEAN_ANOMALY   = 327.9505

EPHEMERIS_TYPE = 0
CLASSIFICATION_TYPE = U
NORAD_CAT_ID   = 14820
ELEMENT_SET_NO = 999
REV_AT_EPOCH   = 22905
BSTAR          = .60253E-4
MEAN_MOTION_DOT = .55E-5
MEAN_MOTION_DDOT = 0

CCSDS_OMM_VERS = 2.0
CREATION_DATE  = 
ORIGINATOR     = 

OBJECT_NAME    = SL-8 R/B
OBJECT_ID      = 1985-006B
CENTER_NAME    = EARTH
REF_FRAME      = TEME
TIME_SYSTEM    = UTC
MEAN_ELEMENT_THEORY = SGP/SGP4

EPOCH          = 2025-11-04T17:59:02.232096
MEAN_MOTION    = 14.37685686
ECCENTRICITY   = .0017483
INCLINATION    = 74.0430
RA_OF_ASC_NODE = 131.0290
ARG_OF_PERICENTER = 75.9777
MEAN_ANOMALY   = 296.0781

EPHEMERIS_TYPE = 0
CLASSIFICATION_TYPE = U
NORAD_CAT_ID   = 15483
ELEMENT_SET_NO = 999
REV_AT_EPOCH   = 13607
BSTAR          = .10214E-3
MEAN_MOTION_DOT = .281E-5
MEAN_MOTION_DDOT = 0

CCSDS_OMM_VERS = 2.0
CREATION_DATE  = 
ORIGINATOR     = 

OBJECT_NAME    = SL-12 R/B(2)
OBJECT_ID      = 1985-042D
CENTER_NAME    = EARTH
REF_FRAME      = TEME
TIME_SYSTEM    = UTC
MEAN_ELEMENT_THEORY = SGP/SGP4

EPOCH          = 2025-11-04T20:24:34.903872
MEAN_MOTION    = 14.21933360
ECCENTRICITY   = .0036933
INCLINATION    = 71.1093
RA_OF_ASC_NODE = 351.4673
ARG_OF_PERICENTER = 317.1532
MEAN_ANOMALY   = 215.9833

EPHEMERIS_TYPE = 0
CLASSIFICATION_TYPE = U
NORAD_CAT_ID   = 15772
ELEMENT_SET_NO = 999
REV_AT_EPOCH   = 9664
BSTAR          = .83204E-4
MEAN_MOTION_DOT = .137E-5
MEAN_MOTION_DDOT = 0

CCSDS_OMM_VERS = 2.0
CREATION_DATE  = 
ORIGINATOR     = 

OBJECT_NAME    = SL-14 R/B
OBJECT_ID      = 1985-069B
CENTER_NAME    = EARTH
REF_FRAME      = TEME
TIME_SYSTEM    = UTC
MEAN_ELEMENT_THEORY = SGP/SGP4

EPOCH          = 2025-11-04T19:09:41.677056
MEAN_MOTION    = 14.86255901
ECCENTRICITY   = .0017432
INCLINATION    = 82.5249
RA_OF_ASC_NODE = 142.3739
ARG_OF_PERICENTER = 244.3297
MEAN_ANOMALY   = 115.6119

EPHEMERIS_TYPE = 0
CLASSIFICATION_TYPE = U
NORAD_CAT_ID   = 15945
ELEMENT_SET_NO = 999
REV_AT_EPOCH   = 15428
BSTAR          = .59257E-4
MEAN_MOTION_DOT = .546E-5
MEAN_MOTION_DDOT = 0

CCSDS_OMM_VERS = 2.0
CREATION_DATE  = 
ORIGINATOR     = 

OBJECT_NAME    = SL-16 R/B
OBJECT_ID      = 1985-097B
CENTER_NAME    = EARTH
REF_FRAME      = TEME
TIME_SYSTEM    = UTC
MEAN_ELEMENT_THEORY = SGP/SGP4

EPOCH          = 2025-11-04T17:41:25.311264
MEAN_MOTION    = 14.16576698
ECCENTRICITY   = .0005109
INCLINATION    = 71.0045
RA_OF_ASC_NODE = 43.6071
ARG_OF_PERICENTER = 84.4766
MEAN_ANOMALY   = 70.2360

EPHEMERIS_TYPE = 0
CLASSIFICATION_TYPE = U
NORAD_CAT_ID   = 16182
ELEMENT_SET_NO = 999
REV_AT_EPOCH   = 6953
BSTAR          = -.42278E-4
MEAN_MOTION_DOT = -.132E-5
MEAN_MOTION_DDOT = 0

CCSDS_OMM_VERS = 2.0
CREATION_DATE  = 
ORIGINATOR     = 

OBJECT_NAME    = SL-14 R/B
OBJECT_ID      = 1986-006B
CENTER_NAME    = EARTH
REF_FRAME      = TEME
TIME_SYSTEM    = UTC
MEAN_ELEMENT_THEORY = SGP/SGP4

EPOCH          = 2025-11-04T14:29:19.693824
MEAN_MOTION    = 14.86591590
ECCENTRICITY   = .0075969
INCLINATION    = 82.5297
RA_OF_ASC_NODE = 17.4293
ARG_OF_PERICENTER = 328.3477
MEAN_ANOMALY   = 31.3181

EPHEMERIS_TYPE = 0
CLASSIFICATION_TYPE = U
NORAD_CAT_ID   = 16496
ELEMENT_SET_NO = 999
REV_AT_EPOCH   = 13062
BSTAR          = .74193E-4
MEAN_MOTION_DOT = .718E-5
MEAN_MOTION_DDOT = 0

